NUSAT-50 (NANCY ROMAN)  
1 60493U 24149AB  26068.80227738  .00012094  00000+0  42252-3 0  9994
2 60493  97.3817 150.7693 0002523 238.0469 122.0527 15.29713355 86930
STARLINK-33800          
1 63576U 25076H   26068.10792929  .00034183  00000+0  12457-2 0  9997
2 63576  43.0056 324.7907 0002050 266.4437  93.6180 15.27585302 51740
